NUSAT-50 (NANCY ROMAN)  
1 60493U 24149AB  26068.80227738  .00012094  00000+0  42252-3 0  9994
2 60493  97.3817 150.7693 0002523 238.0469 122.0527 15.29713355 86930
STARLINK-34410          
1 64440U 25130C   26068.34360570  .00018573  00000+0  63757-3 0  9993
2 64440  53.1586  89.8949 0001266  84.1429 275.9716 15.30203151 40651
